<?xml version="1.0" encoding="UTF-8"?>
<ndm xmlns:xsi="http://www.w3.org/2001/XMLSchema-instance" xsi:noNamespaceSchemaLocation="https://sanaregistry.org/r/ndmxml_unqualified/ndmxml-2.0.0-master-2.0.xsd">
<omm id="CCSDS_OMM_VERS" version="2.0">
<header><CREATION_DATE/><ORIGINATOR/></header><body><segment><metadata><OBJECT_NAME>ONEWEB-0404</OBJECT_NAME><OBJECT_ID>2021-132R</OBJECT_ID><CENTER_NAME>EARTH</CENTER_NAME><REF_FRAME>TEME</REF_FRAME><TIME_SYSTEM>UTC</TIME_SYSTEM><MEAN_ELEMENT_THEORY>SGP4</MEAN_ELEMENT_THEORY></metadata><data><meanElements><EPOCH>2025-06-06T19:10:15.046464</EPOCH><MEAN_MOTION>13.11419812</MEAN_MOTION><ECCENTRICITY>.0002114</ECCENTRICITY><INCLINATION>87.8845</INCLINATION><RA_OF_ASC_NODE>95.8977</RA_OF_ASC_NODE><ARG_OF_PERICENTER>68.7138</ARG_OF_PERICENTER><MEAN_ANOMALY>291.4215</MEAN_ANOMALY></meanElements><tleParameters><EPHEMERIS_TYPE>0</EPHEMERIS_TYPE><CLASSIFICATION_TYPE>U</CLASSIFICATION_TYPE><NORAD_CAT_ID>50484</NORAD_CAT_ID><ELEMENT_SET_NO>999</ELEMENT_SET_NO><REV_AT_EPOCH>16776</REV_AT_EPOCH><BSTAR>-.4545E-4</BSTAR><MEAN_MOTION_DOT>-.3E-7</MEAN_MOTION_DOT><MEAN_MOTION_DDOT>0</MEAN_MOTION_DDOT></tleParameters></data></segment></body></omm>
<omm id="CCSDS_OMM_VERS" version="2.0">
<header><CREATION_DATE/><ORIGINATOR/></header><body><segment><metadata><OBJECT_NAME>ONEWEB-0405</OBJECT_NAME><OBJECT_ID>2021-132S</OBJECT_ID><CENTER_NAME>EARTH</CENTER_NAME><REF_FRAME>TEME</REF_FRAME><TIME_SYSTEM>UTC</TIME_SYSTEM><MEAN_ELEMENT_THEORY>SGP4</MEAN_ELEMENT_THEORY></metadata><data><meanElements><EPOCH>2025-06-06T16:41:50.411904</EPOCH><MEAN_MOTION>13.18687231</MEAN_MOTION><ECCENTRICITY>.0001553</ECCENTRICITY><INCLINATION>87.9151</INCLINATION><RA_OF_ASC_NODE>50.0593</RA_OF_ASC_NODE><ARG_OF_PERICENTER>76.4374</ARG_OF_PERICENTER><MEAN_ANOMALY>283.6931</MEAN_ANOMALY></meanElements><tleParameters><EPHEMERIS_TYPE>0</EPHEMERIS_TYPE><CLASSIFICATION_TYPE>U</CLASSIFICATION_TYPE><NORAD_CAT_ID>50485</NORAD_CAT_ID><ELEMENT_SET_NO>999</ELEMENT_SET_NO><REV_AT_EPOCH>17379</REV_AT_EPOCH><BSTAR>-.59539E-4</BSTAR><MEAN_MOTION_DOT>-.11E-6</MEAN_MOTION_DOT><MEAN_MOTION_DDOT>0</MEAN_MOTION_DDOT></tleParameters></data></segment></body></omm>
<omm id="CCSDS_OMM_VERS" version="2.0">
<header><CREATION_DATE/><ORIGINATOR/></header><body><segment><metadata><OBJECT_NAME>ONEWEB-0406</OBJECT_NAME><OBJECT_ID>2021-132T</OBJECT_ID><CENTER_NAME>EARTH</CENTER_NAME><REF_FRAME>TEME</REF_FRAME><TIME_SYSTEM>UTC</TIME_SYSTEM><MEAN_ELEMENT_THEORY>SGP4</MEAN_ELEMENT_THEORY></metadata><data><meanElements><EPOCH>2025-06-06T10:58:08.075424</EPOCH><MEAN_MOTION>13.18686645</MEAN_MOTION><ECCENTRICITY>.0002356</ECCENTRICITY><INCLINATION>87.9157</INCLINATION><RA_OF_ASC_NODE>50.1274</RA_OF_ASC_NODE><ARG_OF_PERICENTER>70.3434</ARG_OF_PERICENTER><MEAN_ANOMALY>289.7952</MEAN_ANOMALY></meanElements><tleParameters><EPHEMERIS_TYPE>0</EPHEMERIS_TYPE><CLASSIFICATION_TYPE>U</CLASSIFICATION_TYPE><NORAD_CAT_ID>50486</NORAD_CAT_ID><ELEMENT_SET_NO>999</ELEMENT_SET_NO><REV_AT_EPOCH>17210</REV_AT_EPOCH><BSTAR>-.17494E-3</BSTAR><MEAN_MOTION_DOT>-.56E-6</MEAN_MOTION_DOT><MEAN_MOTION_DDOT>0</MEAN_MOTION_DDOT></tleParameters></data></segment></body></omm>
<omm id="CCSDS_OMM_VERS" version="2.0">
<header><CREATION_DATE/><ORIGINATOR/></header><body><segment><metadata><OBJECT_NAME>ONEWEB-0407</OBJECT_NAME><OBJECT_ID>2021-132U</OBJECT_ID><CENTER_NAME>EARTH</CENTER_NAME><REF_FRAME>TEME</REF_FRAME><TIME_SYSTEM>UTC</TIME_SYSTEM><MEAN_ELEMENT_THEORY>SGP4</MEAN_ELEMENT_THEORY></metadata><data><meanElements><EPOCH>2025-06-06T10:49:00.767712</EPOCH><MEAN_MOTION>13.18687559</MEAN_MOTION><ECCENTRICITY>.0001728</ECCENTRICITY><INCLINATION>87.9155</INCLINATION><RA_OF_ASC_NODE>50.1146</RA_OF_ASC_NODE><ARG_OF_PERICENTER>76.2998</ARG_OF_PERICENTER><MEAN_ANOMALY>283.8326</MEAN_ANOMALY></meanElements><tleParameters><EPHEMERIS_TYPE>0</EPHEMERIS_TYPE><CLASSIFICATION_TYPE>U</CLASSIFICATION_TYPE><NORAD_CAT_ID>50487</NORAD_CAT_ID><ELEMENT_SET_NO>999</ELEMENT_SET_NO><REV_AT_EPOCH>17204</REV_AT_EPOCH><BSTAR>.28766E-4</BSTAR><MEAN_MOTION_DOT>.24E-6</MEAN_MOTION_DOT><MEAN_MOTION_DDOT>0</MEAN_MOTION_DDOT></tleParameters></data></segment></body></omm>
<omm id="CCSDS_OMM_VERS" version="2.0">
<header><CREATION_DATE/><ORIGINATOR/></header><body><segment><metadata><OBJECT_NAME>ONEWEB-0409</OBJECT_NAME><OBJECT_ID>2021-132V</OBJECT_ID><CENTER_NAME>EARTH</CENTER_NAME><REF_FRAME>TEME</REF_FRAME><TIME_SYSTEM>UTC</TIME_SYSTEM><MEAN_ELEMENT_THEORY>SGP4</MEAN_ELEMENT_THEORY></metadata><data><meanElements><EPOCH>2025-06-06T19:07:49.012320</EPOCH><MEAN_MOTION>13.11420371</MEAN_MOTION><ECCENTRICITY>.0002274</ECCENTRICITY><INCLINATION>87.8836</INCLINATION><RA_OF_ASC_NODE>95.8639</RA_OF_ASC_NODE><ARG_OF_PERICENTER>73.1506</ARG_OF_PERICENTER><MEAN_ANOMALY>286.9871</MEAN_ANOMALY></meanElements><tleParameters><EPHEMERIS_TYPE>0</EPHEMERIS_TYPE><CLASSIFICATION_TYPE>U</CLASSIFICATION_TYPE><NORAD_CAT_ID>50488</NORAD_CAT_ID><ELEMENT_SET_NO>999</ELEMENT_SET_NO><REV_AT_EPOCH>16766</REV_AT_EPOCH><BSTAR>-.24695E-4</BSTAR><MEAN_MOTION_DOT>.4E-7</MEAN_MOTION_DOT><MEAN_MOTION_DDOT>0</MEAN_MOTION_DDOT></tleParameters></data></segment></body></omm>
<omm id="CCSDS_OMM_VERS" version="2.0">
<header><CREATION_DATE/><ORIGINATOR/></header><body><segment><metadata><OBJECT_NAME>ONEWEB-0412</OBJECT_NAME><OBJECT_ID>2021-132W</OBJECT_ID><CENTER_NAME>EARTH</CENTER_NAME><REF_FRAME>TEME</REF_FRAME><TIME_SYSTEM>UTC</TIME_SYSTEM><MEAN_ELEMENT_THEORY>SGP4</MEAN_ELEMENT_THEORY></metadata><data><meanElements><EPOCH>2025-06-06T10:33:04.260096</EPOCH><MEAN_MOTION>13.18686914</MEAN_MOTION><ECCENTRICITY>.0001447</ECCENTRICITY><INCLINATION>87.9150</INCLINATION><RA_OF_ASC_NODE>50.1311</RA_OF_ASC_NODE><ARG_OF_PERICENTER>80.5098</ARG_OF_PERICENTER><MEAN_ANOMALY>279.6198</MEAN_ANOMALY></meanElements><tleParameters><EPHEMERIS_TYPE>0</EPHEMERIS_TYPE><CLASSIFICATION_TYPE>U</CLASSIFICATION_TYPE><NORAD_CAT_ID>50489</NORAD_CAT_ID><ELEMENT_SET_NO>999</ELEMENT_SET_NO><REV_AT_EPOCH>17213</REV_AT_EPOCH><BSTAR>.38375E-4</BSTAR><MEAN_MOTION_DOT>.28E-6</MEAN_MOTION_DOT><MEAN_MOTION_DDOT>0</MEAN_MOTION_DDOT></tleParameters></data></segment></body></omm>
<omm id="CCSDS_OMM_VERS" version="2.0">
<header><CREATION_DATE/><ORIGINATOR/></header><body><segment><metadata><OBJECT_NAME>ONEWEB-0413</OBJECT_NAME><OBJECT_ID>2021-132X</OBJECT_ID><CENTER_NAME>EARTH</CENTER_NAME><REF_FRAME>TEME</REF_FRAME><TIME_SYSTEM>UTC</TIME_SYSTEM><MEAN_ELEMENT_THEORY>SGP4</MEAN_ELEMENT_THEORY></metadata><data><meanElements><EPOCH>2025-06-06T16:07:42.189312</EPOCH><MEAN_MOTION>13.18686405</MEAN_MOTION><ECCENTRICITY>.0001541</ECCENTRICITY><INCLINATION>87.9157</INCLINATION><RA_OF_ASC_NODE>50.0984</RA_OF_ASC_NODE><ARG_OF_PERICENTER>84.1572</ARG_OF_PERICENTER><MEAN_ANOMALY>275.9736</MEAN_ANOMALY></meanElements><tleParameters><EPHEMERIS_TYPE>0</EPHEMERIS_TYPE><CLASSIFICATION_TYPE>U</CLASSIFICATION_TYPE><NORAD_CAT_ID>50490</NORAD_CAT_ID><ELEMENT_SET_NO>999</ELEMENT_SET_NO><REV_AT_EPOCH>17339</REV_AT_EPOCH><BSTAR>-.87732E-4</BSTAR><MEAN_MOTION_DOT>-.22E-6</MEAN_MOTION_DOT><MEAN_MOTION_DDOT>0</MEAN_MOTION_DDOT></tleParameters></data></segment></body></omm>
<omm id="CCSDS_OMM_VERS" version="2.0">
<header><CREATION_DATE/><ORIGINATOR/></header><body><segment><metadata><OBJECT_NAME>ONEWEB-0414</OBJECT_NAME><OBJECT_ID>2021-132Y</OBJECT_ID><CENTER_NAME>EARTH</CENTER_NAME><REF_FRAME>TEME</REF_FRAME><TIME_SYSTEM>UTC</TIME_SYSTEM><MEAN_ELEMENT_THEORY>SGP4</MEAN_ELEMENT_THEORY></metadata><data><meanElements><EPOCH>2025-06-06T10:19:26.001984</EPOCH><MEAN_MOTION>13.18686161</MEAN_MOTION><ECCENTRICITY>.000164</ECCENTRICITY><INCLINATION>87.9148</INCLINATION><RA_OF_ASC_NODE>50.1100</RA_OF_ASC_NODE><ARG_OF_PERICENTER>75.3389</ARG_OF_PERICENTER><MEAN_ANOMALY>284.7925</MEAN_ANOMALY></meanElements><tleParameters><EPHEMERIS_TYPE>0</EPHEMERIS_TYPE><CLASSIFICATION_TYPE>U</CLASSIFICATION_TYPE><NORAD_CAT_ID>50491</NORAD_CAT_ID><ELEMENT_SET_NO>999</ELEMENT_SET_NO><REV_AT_EPOCH>17210</REV_AT_EPOCH><BSTAR>.90513E-4</BSTAR><MEAN_MOTION_DOT>.49E-6</MEAN_MOTION_DOT><MEAN_MOTION_DDOT>0</MEAN_MOTION_DDOT></tleParameters></data></segment></body></omm>
<omm id="CCSDS_OMM_VERS" version="2.0">
<header><CREATION_DATE/><ORIGINATOR/></header><body><segment><metadata><OBJECT_NAME>ONEWEB-0417</OBJECT_NAME><OBJECT_ID>2021-132Z</OBJECT_ID><CENTER_NAME>EARTH</CENTER_NAME><REF_FRAME>TEME</REF_FRAME><TIME_SYSTEM>UTC</TIME_SYSTEM><MEAN_ELEMENT_THEORY>SGP4</MEAN_ELEMENT_THEORY></metadata><data><meanElements><EPOCH>2025-06-06T10:30:48.559392</EPOCH><MEAN_MOTION>13.18686652</MEAN_MOTION><ECCENTRICITY>.0001933</ECCENTRICITY><INCLINATION>87.9159</INCLINATION><RA_OF_ASC_NODE>50.1366</RA_OF_ASC_NODE><ARG_OF_PERICENTER>74.1225</ARG_OF_PERICENTER><MEAN_ANOMALY>286.0120</MEAN_ANOMALY></meanElements><tleParameters><EPHEMERIS_TYPE>0</EPHEMERIS_TYPE><CLASSIFICATION_TYPE>U</CLASSIFICATION_TYPE><NORAD_CAT_ID>50492</NORAD_CAT_ID><ELEMENT_SET_NO>999</ELEMENT_SET_NO><REV_AT_EPOCH>17208</REV_AT_EPOCH><BSTAR>.17903E-4</BSTAR><MEAN_MOTION_DOT>.2E-6</MEAN_MOTION_DOT><MEAN_MOTION_DDOT>0</MEAN_MOTION_DDOT></tleParameters></data></segment></body></omm>

</ndm>
